*******************************************************************************
 Revised: April 22, 2021              Neptune                               899
 
 PHYSICAL DATA (update 2021-May-03):
  Mass x10^24 (kg)      = 102.409         Density (g/cm^3)       =  1.638
  Equat. radius (1 bar) = 24766+-15 km    Volume, 10^10 km^3     = 6254     
  Vol. mean radius (km) = 24624+-21       Polar radius (km)      = 24342+-30
  Geometric Albedo      = 0.41            Flattening             =  0.0171
  Sid. rot. period (III)= 16.11+-0.01 hr  Sid. rot. rate (rad/s) =  0.000108338 
  Mean solar day, h     =~16.11 h         
  GM (km^3/s^2)         = 6835099.97      GM 1-sigma (km^3/s^2)  = +-10 
  Equ. grav, ge (m/s^2) = 11.15           Pol. grav, gp (m/s^2)  = 11.41+-0.03
  Visual magnitude V(1,0)= -6.87
  Vis. mag. (opposition)=  +7.84          Obliquity to orbit     = 28.32 deg
  Sidereal orbit period = 164.788501027 y Sidereal orbit period  = 60189 d
  Mean daily motion     = 0.006020076dg/d Mean orbit velocity    =  5.43 km/s 
  Atmos. temp. (1 bar)  =  72+-2 K        Escape speed (1 bar)  =  23.5 km/s     
  Aroche(ice)/Rp        =  2.98           Hill's sphere rad., Rp = 4700
                                 Perihelion  Aphelion    Mean
  Solar Constant (W/m^2)         1.54        1.49        1.51
  Maximum Planetary IR (W/m^2)   0.52        0.52        0.52
  Minimum Planetary IR (W/m^2)   0.52        0.52        0.52
*******************************************************************************


*******************************************************************************
Ephemeris / WWW_USER Fri Nov  8 10:43:56 2024 Pasadena, USA      / Horizons
*******************************************************************************
Target body name: Neptune (899)                   {source: nep104_merged}
Center body name: Solar System Barycenter (0)     {source: DE441}
Center-site name: BODY CENTER
*******************************************************************************
Start time      : A.D. 2013-Jan-01 00:00:00.0000 TDB
Stop  time      : A.D. 2014-Jan-01 00:00:00.0000 TDB
Step-size       : 1440 minutes
*******************************************************************************
Center geodetic : 0.0, 0.0, 0.0                   {E-lon(deg),Lat(deg),Alt(km)}
Center cylindric: 0.0, 0.0, 0.0                   {E-lon(deg),Dxy(km),Dz(km)}
Center radii    : (undefined)
Output units    : KM-S
Calendar mode   : Mixed Julian/Gregorian
Output type     : GEOMETRIC cartesian states
Output format   : 5 (velocity only)
Reference frame : Ecliptic of J2000.0
*******************************************************************************
JDTDB
   VX    VY    VZ
*******************************************************************************
$$SOE
2456558.500000000 = A.D. 2013-Sep-23 00:00:00.0000 TDB 
 VX= 2.353307388892221E+00 VY= 4.914847691438648E+00 VZ=-1.551255607284860E-01
2456559.500000000 = A.D. 2013-Sep-24 00:00:00.0000 TDB 
 VX= 2.352815734372192E+00 VY= 4.915177707161869E+00 VZ=-1.550608838031904E-01
2456560.500000000 = A.D. 2013-Sep-25 00:00:00.0000 TDB 
 VX= 2.352320367459551E+00 VY= 4.915509146304875E+00 VZ=-1.549919968316138E-01
2456561.500000000 = A.D. 2013-Sep-26 00:00:00.0000 TDB 
 VX= 2.351749490308359E+00 VY= 4.915679920632816E+00 VZ=-1.550151745187203E-01
2456562.500000000 = A.D. 2013-Sep-27 00:00:00.0000 TDB 
 VX= 2.351183578494876E+00 VY= 4.915851949984445E+00 VZ=-1.550409639053618E-01
2456563.500000000 = A.D. 2013-Sep-28 00:00:00.0000 TDB 
 VX= 2.350622632024671E+00 VY= 4.916025234356821E+00 VZ=-1.550693649916079E-01
2456564.500000000 = A.D. 2013-Sep-29 00:00:00.0000 TDB 
 VX= 2.350066650903317E+00 VY= 4.916199773747016E+00 VZ=-1.551003777775275E-01
2456565.500000000 = A.D. 2013-Sep-30 00:00:00.0000 TDB 
 VX= 2.349515635136383E+00 VY= 4.916375568152090E+00 VZ=-1.551340022631873E-01
2456566.500000000 = A.D. 2013-Oct-01 00:00:00.0000 TDB 
 VX= 2.348969584729443E+00 VY= 4.916552617569108E+00 VZ=-1.551702384486562E-01
2456567.500000000 = A.D. 2013-Oct-02 00:00:00.0000 TDB 
 VX= 2.348428499688067E+00 VY= 4.916730921995133E+00 VZ=-1.552090863340017E-01
2456568.500000000 = A.D. 2013-Oct-03 00:00:00.0000 TDB 
 VX= 2.347892380017827E+00 VY= 4.916910481427231E+00 VZ=-1.552505459192919E-01
2456569.500000000 = A.D. 2013-Oct-04 00:00:00.0000 TDB 
 VX= 2.347361225724296E+00 VY= 4.917091295862464E+00 VZ=-1.552946172045928E-01
2456570.500000000 = A.D. 2013-Oct-05 00:00:00.0000 TDB 
 VX= 2.346835036813046E+00 VY= 4.917273365297897E+00 VZ=-1.553413001899731E-01
2456571.500000000 = A.D. 2013-Oct-06 00:00:00.0000 TDB 
 VX= 2.346313813289650E+00 VY= 4.917456689730592E+00 VZ=-1.553905948754988E-01
2456572.500000000 = A.D. 2013-Oct-07 00:00:00.0000 TDB 
 VX= 2.345797555159681E+00 VY= 4.917641269157614E+00 VZ=-1.554425012612370E-01
2456573.500000000 = A.D. 2013-Oct-08 00:00:00.0000 TDB 
 VX= 2.345286262428714E+00 VY= 4.917827103576026E+00 VZ=-1.554970193472545E-01
2456574.500000000 = A.D. 2013-Oct-09 00:00:00.0000 TDB 
 VX= 2.344779935102320E+00 VY= 4.918014192982890E+00 VZ=-1.555541491336172E-01
2456575.500000000 = A.D. 2013-Oct-10 00:00:00.0000 TDB 
 VX= 2.344278573186072E+00 VY= 4.918202537375271E+00 VZ=-1.556138906203914E-01
2456576.500000000 = A.D. 2013-Oct-11 00:00:00.0000 TDB 
 VX= 2.343782176685548E+00 VY= 4.918392136750231E+00 VZ=-1.556762438076433E-01
2456577.500000000 = A.D. 2013-Oct-12 00:00:00.0000 TDB 
 VX= 2.343290745606320E+00 VY= 4.918582991104833E+00 VZ=-1.557412086954386E-01
2456578.500000000 = A.D. 2013-Oct-13 00:00:00.0000 TDB 
 VX= 2.342804279953963E+00 VY= 4.918775100436139E+00 VZ=-1.558087852838430E-01
2456579.500000000 = A.D. 2013-Oct-14 00:00:00.0000 TDB 
 VX= 2.342322779734053E+00 VY= 4.918968464741211E+00 VZ=-1.558789735729218E-01
2456580.500000000 = A.D. 2013-Oct-15 00:00:00.0000 TDB 
 VX= 2.341846244952162E+00 VY= 4.919163084017115E+00 VZ=-1.559517735627400E-01
2456581.500000000 = A.D. 2013-Oct-16 00:00:00.0000 TDB 
 VX= 2.341341834902206E+00 VY= 4.919491177938846E+00 VZ=-1.558784134621352E-01
2456582.500000000 = A.D. 2013-Oct-17 00:00:00.0000 TDB 
 VX= 2.340832888668289E+00 VY= 4.919815594094648E+00 VZ=-1.558049698389614E-01
2456583.500000000 = A.D. 2013-Oct-18 00:00:00.0000 TDB 
 VX= 2.340319406255985E+00 VY= 4.920136332481584E+00 VZ=-1.557314426932832E-01
2456584.500000000 = A.D. 2013-Oct-19 00:00:00.0000 TDB 
 VX= 2.339801387670872E+00 VY= 4.920453393096714E+00 VZ=-1.556578320251643E-01
2456585.500000000 = A.D. 2013-Oct-20 00:00:00.0000 TDB 
 VX= 2.339278832918526E+00 VY= 4.920766775937100E+00 VZ=-1.555841378346692E-01
2456586.500000000 = A.D. 2013-Oct-21 00:00:00.0000 TDB 
 VX= 2.338751742004522E+00 VY= 4.921076480999803E+00 VZ=-1.555103601218624E-01
2456587.500000000 = A.D. 2013-Oct-22 00:00:00.0000 TDB 
 VX= 2.338220114934440E+00 VY= 4.921382508281886E+00 VZ=-1.554364988868058E-01
2456588.500000000 = A.D. 2013-Oct-23 00:00:00.0000 TDB 
 VX= 2.337683951713856E+00 VY= 4.921684857780412E+00 VZ=-1.553625541295656E-01
2456589.500000000 = A.D. 2013-Oct-24 00:00:00.0000 TDB 
 VX= 2.337143252348346E+00 VY= 4.921983529492440E+00 VZ=-1.552885258502044E-01
2456590.500000000 = A.D. 2013-Oct-25 00:00:00.0000 TDB 
 VX= 2.336598016843491E+00 VY= 4.922278523415033E+00 VZ=-1.552144140487839E-01
2456591.500000000 = A.D. 2013-Oct-26 00:00:00.0000 TDB 
 VX= 2.336048245204867E+00 VY= 4.922569839545250E+00 VZ=-1.551402187253692E-01
2456592.500000000 = A.D. 2013-Oct-27 00:00:00.0000 TDB 
 VX= 2.335493937438053E+00 VY= 4.922857477880154E+00 VZ=-1.550659398800223E-01
2456593.500000000 = A.D. 2013-Oct-28 00:00:00.0000 TDB 
 VX= 2.334935093548750E+00 VY= 4.923141438416889E+00 VZ=-1.549915775128874E-01
2456594.500000000 = A.D. 2013-Oct-29 00:00:00.0000 TDB 
 VX= 2.334371713542423E+00 VY= 4.923421721152495E+00 VZ=-1.549171316239801E-01
2456595.500000000 = A.D. 2013-Oct-30 00:00:00.0000 TDB 
 VX= 2.333803797424660E+00 VY= 4.923698326084038E+00 VZ=-1.548426022133675E-01
2456596.500000000 = A.D. 2013-Oct-31 00:00:00.0000 TDB 
 VX= 2.333231345201045E+00 VY= 4.923971253208578E+00 VZ=-1.547679892811149E-01
2456597.500000000 = A.D. 2013-Nov-01 00:00:00.0000 TDB 
 VX= 2.332654356877165E+00 VY= 4.924240502523186E+00 VZ=-1.546932928272875E-01
2456598.500000000 = A.D. 2013-Nov-02 00:00:00.0000 TDB 
 VX= 2.332072832458608E+00 VY= 4.924506074024924E+00 VZ=-1.546185128519511E-01
2456599.500000000 = A.D. 2013-Nov-03 00:00:00.0000 TDB 
 VX= 2.331486771950956E+00 VY= 4.924767967710863E+00 VZ=-1.545436493551715E-01
2456600.500000000 = A.D. 2013-Nov-04 00:00:00.0000 TDB 
 VX= 2.330896175359798E+00 VY= 4.925026183578064E+00 VZ=-1.544687023370135E-01
2456601.500000000 = A.D. 2013-Nov-05 00:00:00.0000 TDB 
 VX= 2.330426730117083E+00 VY= 4.925225834130921E+00 VZ=-1.545416040733258E-01
2456602.500000000 = A.D. 2013-Nov-06 00:00:00.0000 TDB 
 VX= 2.329959665329446E+00 VY= 4.925430070614676E+00 VZ=-1.546120247449874E-01
2456603.500000000 = A.D. 2013-Nov-07 00:00:00.0000 TDB 
 VX= 2.329494981002471E+00 VY= 4.925638893026403E+00 VZ=-1.546799643520660E-01
2456604.500000000 = A.D. 2013-Nov-08 00:00:00.0000 TDB 
 VX= 2.329032677141746E+00 VY= 4.925852301363168E+00 VZ=-1.547454228946257E-01
2456605.500000000 = A.D. 2013-Nov-09 00:00:00.0000 TDB 
 VX= 2.328572753752858E+00 VY= 4.926070295622047E+00 VZ=-1.548084003727355E-01
2456606.500000000 = A.D. 2013-Nov-10 00:00:00.0000 TDB 
 VX= 2.328115210841393E+00 VY= 4.926292875800109E+00 VZ=-1.548688967864584E-01
2456607.500000000 = A.D. 2013-Nov-11 00:00:00.0000 TDB 
 VX= 2.327660048412937E+00 VY= 4.926520041894427E+00 VZ=-1.549269121358625E-01
2456608.500000000 = A.D. 2013-Nov-12 00:00:00.0000 TDB 
 VX= 2.327207266473080E+00 VY= 4.926751793902073E+00 VZ=-1.549824464210152E-01
2456609.500000000 = A.D. 2013-Nov-13 00:00:00.0000 TDB 
 VX= 2.326756865027406E+00 VY= 4.926988131820126E+00 VZ=-1.550354996419814E-01
2456610.500000000 = A.D. 2013-Nov-14 00:00:00.0000 TDB 
 VX= 2.326308844081503E+00 VY= 4.927229055645657E+00 VZ=-1.550860717988289E-01
